[{"OBJECT_NAME":"STARLINK-4369","OBJECT_ID":"2022-084C","EPOCH":"2026-03-09T17:00:44.925120","MEAN_MOTION":15.01260154,"ECCENTRICITY":0.00024677,"INCLINATION":97.6029,"RA_OF_ASC_NODE":130.2336,"ARG_OF_PERICENTER":83.994,"MEAN_ANOMALY":276.1566,"EPHEMERIS_TYPE":0,"CLASSIFICATION_TYPE":"U","NORAD_CAT_ID":53191,"ELEMENT_SET_NO":999,"REV_AT_EPOCH":19931,"BSTAR":1.4264483e-5,"MEAN_MOTION_DOT":1.25e-6,"MEAN_MOTION_DDOT":0},{"OBJECT_NAME":"PEGASUS DEB","OBJECT_ID":"1994-029AFW","EPOCH":"2026-02-14T00:16:04.061568","MEAN_MOTION":13.82605489,"ECCENTRICITY":0.05286769,"INCLINATION":82.1466,"RA_OF_ASC_NODE":310.1334,"ARG_OF_PERICENTER":353.1786,"MEAN_ANOMALY":6.236,"EPHEMERIS_TYPE":0,"CLASSIFICATION_TYPE":"U","NORAD_CAT_ID":39923,"ELEMENT_SET_NO":999,"REV_AT_EPOCH":3748,"BSTAR":0.0018125184,"MEAN_MOTION_DOT":5.863e-5,"MEAN_MOTION_DDOT":0}]
